{"type": "FeatureCollection", "features": [ {"type": "Feature", "properties": {"norad_id": 33867, "name": "IRIDIUM 33 DEB", "group": "iridium-33-debris", "lat": 59.570540983947076, "lon": -6.42704815626541, "alt_km": 322.50322192682233, "timestamp": "2025-12-17T23:38:07.238418+00:00", "meta": {"OBJECT_NAME": "IRIDIUM 33 DEB", "OBJECT_ID": "1997-051AL", "EPOCH": "2025-12-17T11:12:10.089216", "MEAN_MOTION": 15.76880715, "ECCENTRICITY": 0.00138273, "INCLINATION": 86.3655, "RA_OF_ASC_NODE": 347.633, "ARG_OF_PERICENTER": 92.1241, "MEAN_ANOMALY": 268.1616, "EPHEMERIS_TYPE": 0, "CLASSIFICATION_TYPE": "U", "NORAD_CAT_ID": 33867, "ELEMENT_SET_NO": 999, "REV_AT_EPOCH": 89585, "BSTAR": 0.0065228292, "MEAN_MOTION_DOT": 0.01179271, "MEAN_MOTION_DDOT": 0}, "tle": {"line1": "1 33867U 97051AL  25351.46678344  .01179271  00000+0  65228-2 0  9999", "line2": "2 33867  86.3655 347.6330 0013827  92.1241 268.1616 15.76880715895851"}}, "geometry": {"type": "Point", "coordinates": [-6.42704815626541, 59.570540983947076]}}, {"type": "Feature", "properties": {"norad_id": 33870, "name": "IRIDIUM 33 DEB", "group": "iridium-33-debris", "lat": -70.00495584411944, "lon": -113.953414377653, "alt_km": 746.2536182868971, "timestamp": "2025-12-17T23:38:07.238429+00:00", "meta": {"OBJECT_NAME": "IRIDIUM 33 DEB", "OBJECT_ID": "1997-051AP", "EPOCH": "2025-12-17T14:45:12.418848", "MEAN_MOTION": 14.45876792, "ECCENTRICITY": 0.00220154, "INCLINATION": 86.3748, "RA_OF_ASC_NODE": 56.1713, "ARG_OF_PERICENTER": 162.3404, "MEAN_ANOMALY": 322.5971, "EPHEMERIS_TYPE": 0, "CLASSIFICATION_TYPE": "U", "NORAD_CAT_ID": 33870, "ELEMENT_SET_NO": 999, "REV_AT_EPOCH": 88207, "BSTAR": 0.00055194684, "MEAN_MOTION_DOT": 1.986e-05, "MEAN_MOTION_DDOT": 0}, "tle": {"line1": "1 33870U 97051AP  25351.61472707  .00001986  00000+0  55195-3 0  9994", "line2": "2 33870  86.3748  56.1713 0022015 162.3404 322.5971 14.45876792882079"}}, "geometry": {"type": "Point", "coordinates": [-113.953414377653, -70.00495584411944]}}, {"type": "Feature", "properties": {"norad_id": 33881, "name": "IRIDIUM 33 DEB", "group": "iridium-33-debris", "lat": -38.65831908360517, "lon": 101.56453367677341, "alt_km": 752.2770816100638, "timestamp": "2025-12-17T23:38:07.238440+00:00", "meta": {"OBJECT_NAME": "IRIDIUM 33 DEB", "OBJECT_ID": "1997-051BA", "EPOCH": "2025-12-17T13:59:16.230336", "MEAN_MOTION": 14.56660218, "ECCENTRICITY": 0.00614907, "INCLINATION": 86.386, "RA_OF_ASC_NODE": 104.6373, "ARG_OF_PERICENTER": 159.0678, "MEAN_ANOMALY": 215.4693, "EPHEMERIS_TYPE": 0, "CLASSIFICATION_TYPE": "U", "NORAD_CAT_ID": 33881, "ELEMENT_SET_NO": 999, "REV_AT_EPOCH": 87571, "BSTAR": 0.0015160031, "MEAN_MOTION_DOT": 6.964e-05, "MEAN_MOTION_DDOT": 0}, "tle": {"line1": "1 33881U 97051BA  25351.58282674  .00006964  00000+0  15160-2 0  9992", "line2": "2 33881  86.3860 104.6373 0061490 159.0678 215.4693 14.56660218875713"}}, "geometry": {"type": "Point", "coordinates": [101.56453367677341, -38.65831908360517]}}, {"type": "Feature", "properties": {"norad_id": 33884, "name": "IRIDIUM 33 DEB", "group": "iridium-33-debris", "lat": -58.800313911149196, "lon": 1.4335261379644266, "alt_km": 637.8229203523515, "timestamp": "2025-12-17T23:38:07.238451+00:00", "meta": {"OBJECT_NAME": "IRIDIUM 33 DEB", "OBJECT_ID": "1997-051BD", "EPOCH": "2025-12-17T13:04:54.280416", "MEAN_MOTION": 14.77523621, "ECCENTRICITY": 0.00093111, "INCLINATION": 86.3696, "RA_OF_ASC_NODE": 7.6497, "ARG_OF_PERICENTER": 305.3412, "MEAN_ANOMALY": 178.2939, "EPHEMERIS_TYPE": 0, "CLASSIFICATION_TYPE": "U", "NORAD_CAT_ID": 33884, "ELEMENT_SET_NO": 999, "REV_AT_EPOCH": 88918, "BSTAR": 0.0011919689, "MEAN_MOTION_DOT": 8.535e-05, "MEAN_MOTION_DDOT": 0}, "tle": {"line1": "1 33884U 97051BD  25351.54507269  .00008535  00000+0  11920-2 0  9997", "line2": "2 33884  86.3696   7.6497 0009311 305.3412 178.2939 14.77523621889182"}}, "geometry": {"type": "Point", "coordinates": [1.4335261379644266, -58.800313911149196]}}, {"type": "Feature", "properties": {"norad_id": 33886, "name": "IRIDIUM 33 DEB", "group": "iridium-33-debris", "lat": 14.29727305089364, "lon": -115.90250245611519, "alt_km": 767.6541016709452, "timestamp": "2025-12-17T23:38:07.238462+00:00", "meta": {"OBJECT_NAME": "IRIDIUM 33 DEB", "OBJECT_ID": "1997-051BF", "EPOCH": "2025-12-17T15:02:25.501920", "MEAN_MOTION": 14.36057797, "ECCENTRICITY": 0.00126871, "INCLINATION": 86.3828, "RA_OF_ASC_NODE": 65.1719, "ARG_OF_PERICENTER": 223.9807, "MEAN_ANOMALY": 251.452, "EPHEMERIS_TYPE": 0, "CLASSIFICATION_TYPE": "U", "NORAD_CAT_ID": 33886, "ELEMENT_SET_NO": 999, "REV_AT_EPOCH": 88122, "BSTAR": 0.00016228391, "MEAN_MOTION_DOT": 4.92e-06, "MEAN_MOTION_DDOT": 0}, "tle": {"line1": "1 33886U 97051BF  25351.62668405  .00000492  00000+0  16228-3 0  9999", "line2": "2 33886  86.3828  65.1719 0012687 223.9807 251.4520 14.36057797881228"}}, "geometry": {"type": "Point", "coordinates": [-115.90250245611519, 14.29727305089364]}}, {"type": "Feature", "properties": {"norad_id": 33887, "name": "IRIDIUM 33 DEB", "group": "iridium-33-debris", "lat": 55.84256506622596, "lon": 175.66561239044498, "alt_km": 761.9073366108532, "timestamp": "2025-12-17T23:38:07.238472+00:00", "meta": {"OBJECT_NAME": "IRIDIUM 33 DEB", "OBJECT_ID": "1997-051BG", "EPOCH": "2025-12-17T12:04:10.318080", "MEAN_MOTION": 14.37225313, "ECCENTRICITY": 0.00049044, "INCLINATION": 86.3042, "RA_OF_ASC_NODE": 1.3395, "ARG_OF_PERICENTER": 206.8502, "MEAN_ANOMALY": 305.3018, "EPHEMERIS_TYPE": 0, "CLASSIFICATION_TYPE": "U", "NORAD_CAT_ID": 33887, "ELEMENT_SET_NO": 999, "REV_AT_EPOCH": 88233, "BSTAR": 0.00012790558, "MEAN_MOTION_DOT": 4e-06, "MEAN_MOTION_DDOT": 0}, "tle": {"line1": "1 33887U 97051BG  25351.50289720  .00000400  00000+0  12791-3 0  9996", "line2": "2 33887  86.3042   1.3395 0004904 206.8502 305.3018 14.37225313882330"}}, "geometry": {"type": "Point", "coordinates": [175.66561239044498, 55.84256506622596]}}, {"type": "Feature", "properties": {"norad_id": 33953, "name": "IRIDIUM 33 DEB", "group": "iridium-33-debris", "lat": -38.87387623835158, "lon": 48.581908156270266, "alt_km": 722.1849248261251, "timestamp": "2025-12-17T23:38:07.238483+00:00", "meta": {"OBJECT_NAME": "IRIDIUM 33 DEB", "OBJECT_ID": "1997-051BN", "EPOCH": "2025-12-17T04:08:26.339712", "MEAN_MOTION": 14.55368101, "ECCENTRICITY": 0.00181835, "INCLINATION": 86.3848, "RA_OF_ASC_NODE": 51.8558, "ARG_OF_PERICENTER": 89.4341, "MEAN_ANOMALY": 298.8096, "EPHEMERIS_TYPE": 0, "CLASSIFICATION_TYPE": "U", "NORAD_CAT_ID": 33953, "ELEMENT_SET_NO": 999, "REV_AT_EPOCH": 88368, "BSTAR": 0.00084794262, "MEAN_MOTION_DOT": 3.708e-05, "MEAN_MOTION_DDOT": 0}, "tle": {"line1": "1 33953U 97051BN  25351.17252708  .00003708  00000+0  84794-3 0  9995", "line2": "2 33953  86.3848  51.8558 0018183  89.4341 298.8096 14.55368101883683"}}, "geometry": {"type": "Point", "coordinates": [48.581908156270266, -38.87387623835158]}}, {"type": "Feature", "properties": {"norad_id": 33960, "name": "IRIDIUM 33 DEB", "group": "iridium-33-debris", "lat": -29.236570045209206, "lon": -75.06130473469646, "alt_km": 617.4245751099697, "timestamp": "2025-12-17T23:38:07.238494+00:00", "meta": {"OBJECT_NAME": "IRIDIUM 33 DEB", "OBJECT_ID": "1997-051BV", "EPOCH": "2025-12-17T08:08:09.314016", "MEAN_MOTION": 14.85425899, "ECCENTRICITY": 0.00074619, "INCLINATION": 86.2537, "RA_OF_ASC_NODE": 287.345, "ARG_OF_PERICENTER": 54.6753, "MEAN_ANOMALY": 64.9826, "EPHEMERIS_TYPE": 0, "CLASSIFICATION_TYPE": "U", "NORAD_CAT_ID": 33960, "ELEMENT_SET_NO": 999, "REV_AT_EPOCH": 88935, "BSTAR": 0.0023413728, "MEAN_MOTION_DOT": 0.00020242, "MEAN_MOTION_DDOT": 0}, "tle": {"line1": "1 33960U 97051BV  25351.33899669  .00020242  00000+0  23414-2 0  9997", "line2": "2 33960  86.2537 287.3450 0007461  54.6753  64.9826 14.85425899889354"}}, "geometry": {"type": "Point", "coordinates": [-75.06130473469646, -29.236570045209206]}}, {"type": "Feature", "properties": {"norad_id": 33966, "name": "IRIDIUM 33 DEB", "group": "iridium-33-debris", "lat": -21.087211025628864, "lon": 42.38270489867869, "alt_km": 737.824102501424, "timestamp": "2025-12-17T23:38:07.238504+00:00", "meta": {"OBJECT_NAME": "IRIDIUM 33 DEB", "OBJECT_ID": "1997-051CB", "EPOCH": "2025-12-17T14:22:30.796320", "MEAN_MOTION": 14.49613596, "ECCENTRICITY": 0.00079959, "INCLINATION": 86.3923, "RA_OF_ASC_NODE": 43.9423, "ARG_OF_PERICENTER": 172.4962, "MEAN_ANOMALY": 314.2197, "EPHEMERIS_TYPE": 0, "CLASSIFICATION_TYPE": "U", "NORAD_CAT_ID": 33966, "ELEMENT_SET_NO": 999, "REV_AT_EPOCH": 88512, "BSTAR": 0.0004008794, "MEAN_MOTION_DOT": 1.56e-05, "MEAN_MOTION_DDOT": 0}, "tle": {"line1": "1 33966U 97051CB  25351.59896755  .00001560  00000+0  40088-3 0  9993", "line2": "2 33966  86.3923  43.9423 0007995 172.4962 314.2197 14.49613596885125"}}, "geometry": {"type": "Point", "coordinates": [42.38270489867869, -21.087211025628864]}}, {"type": "Feature", "properties": {"norad_id": 34071, "name": "IRIDIUM 33 DEB", "group": "iridium-33-debris", "lat": 42.660862751499394, "lon": 18.925540614818498, "alt_km": 719.3836775772561, "timestamp": "2025-12-17T23:38:07.238514+00:00", "meta": {"OBJECT_NAME": "IRIDIUM 33 DEB", "OBJECT_ID": "1997-051CE", "EPOCH": "2025-12-17T13:29:52.397664", "MEAN_MOTION": 14.49486285, "ECCENTRICITY": 0.00099928, "INCLINATION": 86.3453, "RA_OF_ASC_NODE": 15.7325, "ARG_OF_PERICENTER": 94.7771, "MEAN_ANOMALY": 265.4575, "EPHEMERIS_TYPE": 0, "CLASSIFICATION_TYPE": "U", "NORAD_CAT_ID": 34071, "ELEMENT_SET_NO": 999, "REV_AT_EPOCH": 88404, "BSTAR": 0.00046266915, "MEAN_MOTION_DOT": 1.793e-05, "MEAN_MOTION_DDOT": 0}, "tle": {"line1": "1 34071U 97051CE  25351.56241201  .00001793  00000+0  46267-3 0  9991", "line2": "2 34071  86.3453  15.7325 0009992  94.7771 265.4575 14.49486285884042"}}, "geometry": {"type": "Point", "coordinates": [18.925540614818498, 42.660862751499394]}}]}